ONEWEB-0063             
1 45448U 20020AA  24026.49139134  .00002729  00000+0  76591-2 0  9996
2 45448  87.8973 194.5170 0001013  89.0925 271.0319 13.11443540188314
ONEWEB-0019             
1 45449U 20020AB  24026.54177840  .00000299  00000+0  80928-3 0  9999
2 45449  87.8977 194.5039 0001437  88.3556 271.7736 13.11415102188161
ONEWEB-0094             
1 45450U 20020AC  24026.49528408  .00000018  00000+0  13352-4 0  9992
2 45450  87.9227 179.3894 0001534 100.0843 260.0462 13.17650973191389
ONEWEB-0087             
1 45451U 20020AD  24026.49792091 -.00000380  00000+0 -11068-2 0  9998
2 45451  87.8971 194.4949 0001659 109.4697 250.6610 13.11418582188201
ONEWEB-0082             
1 45452U 20020AE  24026.49954749 -.00000345  00000+0 -10090-2 0  9994
2 45452  87.8975 194.4918 0001552  96.3317 263.7988 13.11418893188294
ONEWEB-0050             
1 45453U 20020AF  24026.56841070 -.00004524  00000+0 -35696-3 0  9998
2 45453  87.9973  64.3235 0021449 212.6345 147.3565 15.00881510210386
ONEWEB-0034             
1 45454U 20020AG  24026.51903361  .00000498  00000+0  13698-2 0  9997
2 45454  87.8973 194.5056 0001507  98.7673 261.3626 13.11419240188211
ONEWEB-0060             
1 45455U 20020AH  24026.52715694  .00000542  00000+0  14937-2 0  9996
2 45455  87.8976 194.4997 0001439 101.7014 258.4276 13.11417374188175
